[{"OBJECT_NAME":"YAOGAN-20 01B","OBJECT_ID":"2014-047B","EPOCH":"2026-03-09T23:45:00.499968","MEAN_MOTION":13.45431441,"ECCENTRICITY":0.03813833,"INCLINATION":63.3786,"RA_OF_ASC_NODE":275.7687,"ARG_OF_PERICENTER":14.1688,"MEAN_ANOMALY":346.9686,"EPHEMERIS_TYPE":0,"CLASSIFICATION_TYPE":"U","NORAD_CAT_ID":40110,"ELEMENT_SET_NO":999,"REV_AT_EPOCH":56893,"BSTAR":0.00011613122,"MEAN_MOTION_DOT":1.6e-7,"MEAN_MOTION_DDOT":0},{"OBJECT_NAME":"ARIANE 42P R\/B","OBJECT_ID":"1992-052D","EPOCH":"2026-03-09T14:29:28.738176","MEAN_MOTION":12.779682,"ECCENTRICITY":0.0070782,"INCLINATION":66.0663,"RA_OF_ASC_NODE":151.5721,"ARG_OF_PERICENTER":343.3216,"MEAN_ANOMALY":116.6189,"EPHEMERIS_TYPE":0,"CLASSIFICATION_TYPE":"U","NORAD_CAT_ID":22079,"ELEMENT_SET_NO":999,"REV_AT_EPOCH":56666,"BSTAR":0.00012789,"MEAN_MOTION_DOT":-3.2e-7,"MEAN_MOTION_DDOT":0}]
